{"spkid": "20419624", "covariance": {"labels": ["e", "q", "tp", "node", "peri", "i"], "data": [["6.713529640883463E-15", "-6.548197560221259E-15", "1.408590956143266E-12", "-9.363407897658877E-13", "1.154782768848086E-12", "1.032907837264701E-12"], ["-6.548197560221259E-15", "6.457224103726921E-15", "-1.376051983001009E-12", "9.097373002015259E-13", "-1.116563033827774E-12", "-1.003827454184923E-12"], ["1.408590956143266E-12", "-1.376051983001009E-12", "2.875354207576057E-9", "-5.862101092102017E-10", "2.816021421347636E-9", "5.990637957829891E-10"], ["-9.363407897658877E-13", "9.097373002015259E-13", "-5.862101092102017E-10", "6.215247612822678E-10", "-8.212155663428886E-10", "-3.69168320840361E-10"], ["1.154782768848086E-12", "-1.116563033827774E-12", "2.816021421347636E-9", "-8.212155663428886E-10", "3.018467611363734E-9", "5.939324221226176E-10"], ["1.032907837264701E-12", "-1.003827454184923E-12", "5.990637957829891E-10", "-3.69168320840361E-10", "5.939324221226176E-10", "4.021417846275788E-10"]], "elements": [{"label": "e", "name": "e", "sigma": 8.19361314737489e-08, "title": "eccentricity", "value": ".07526233654602961", "units": null}, {"label": "q", "sigma": 8.03568547401335e-08, "name": "q", "title": "perihelion distance", "value": ".9258724990970343", "units": "au"}, {"value": "2455991.970904253616", "title": "time of perihelion passage", "units": "TDB", "sigma": 5.36223293747675e-05, "name": "tp", "label": "tp"}, {"units": "deg", "title": "longitude of the ascending node", "value": "40.48333158585379", "sigma": 2.49303983378178e-05, "name": "om", "label": "node"}, {"label": "peri", "units": "deg", "title": "argument of perihelion", "value": "108.5478816721714", "sigma": 5.49405825539167e-05, "name": "w"}, {"label": "i", "units": "deg", "title": "inclination", "value": "14.53051668089819", "name": "i", "sigma": 2.00534731312952e-05}], "epoch": "2456109.5"}, "elements": [{"name": "e", "sigma": "8.1966E-8", "title": "eccentricity", "value": ".0754213870642147", "units": null, "label": "e"}, {"value": "1.004000987019211", "title": "semi-major axis", "units": "au", "name": "a", "sigma": "6.0425E-9", "label": "a"}, {"label": "q", "value": ".9282778399643814", "title": "perihelion distance", "units": "au", "name": "q", "sigma": "8.4622E-8"}, {"name": "i", "sigma": "2.0074E-5", "value": "14.51303710963417", "title": "inclination; angle with respect to x-y ecliptic plane", "units": "deg", "label": "i"}, {"label": "node", "units": "deg", "title": "longitude of the ascending node", "value": "40.33953074010562", "sigma": "2.4661E-5", "name": "om"}, {"label": "peri", "units": "deg", "value": "109.2435358907266", "title": "argument of perihelion", "name": "w", "sigma": "5.3354E-5"}, {"units": "deg", "title": "mean anomaly", "value": "70.41053055924246", "name": "ma", "sigma": "6.3649E-5", "label": "M"}, {"name": "tp", "sigma": "6.4716E-5", "value": "2461128.632133470130", "title": "time of perihelion passage", "units": "TDB", "label": "tp"}, {"label": "period", "name": "per", "sigma": "3.3172E-6", "units": "d", "value": "367.4511716537131", "title": "sidereal orbital period"}, {"label": "n", "name": "n", "sigma": "8.8446E-9", "value": ".9797220087224674", "title": "mean motion", "units": "deg/d"}, {"label": "Q", "value": "1.07972413407404", "title": "aphelion distance", "units": "au", "name": "ad", "sigma": "6.4982E-9"}], "epoch": "2461200.5"}